NORAD_CAT_ID,OBJECT_NAME,OBJECT_TYPE,EPOCH,MEAN_MOTION,ECCENTRICITY,INCLINATION,RA_OF_ASC_NODE,ARG_OF_PERICENTER,MEAN_ANOMALY,BSTAR,MEAN_MOTION_DOT,MEAN_MOTION_DDOT,TLE_LINE0,TLE_LINE1,TLE_LINE2,SEMIMAJOR_AXIS,PERIOD,APOGEE,PERIGEE,DECAYED
52583.0,STARLINK-3895,PAYLOAD,2023-09-01 20:39:40,15.08843918,0.0001368,53.217,288.395,78.5661,281.5485,7.3348e-05,8.8e-06,0.0,0 STARLINK-3895,1 52583U 22051AZ  23244.86088737  .00000880  00000-0  73348-4 0  9990,2 52583  53.2170 288.3950 0001368  78.5661 281.5485 15.08843918 72794,6917.868,95.437,540.68,538.787,0.0
52583.0,STARLINK-3895,PAYLOAD,2023-09-02 09:22:45,15.08845796,0.0001421,53.2169,286.0159,85.5272,274.5883,6.8768e-05,8.07e-06,0.0,0 STARLINK-3895,1 52583U 22051AZ  23245.39080495  .00000807  00000-0  68768-4 0  9991,2 52583  53.2169 286.0159 0001421  85.5272 274.5883 15.08845796 72806,6917.863,95.437,540.711,538.745,0.0
52583.0,STARLINK-3895,PAYLOAD,2023-09-03 02:52:00,15.0884027,0.0001201,53.2157,282.743,93.1094,267.0036,1.6504e-06,-2.62e-06,0.0,0 STARLINK-3895,1 52583U 22051AZ  23246.11944848 -.00000262  00000-0  16504-5 0  9991,2 52583  53.2157 282.7430 0001201  93.1094 267.0036 15.08840270 72989,6917.88,95.438,540.575,538.914,0.0
52583.0,STARLINK-3895,PAYLOAD,2023-09-03 09:13:32,15.08841192,0.0001376,53.2161,281.5537,91.1192,268.9958,1.5678e-05,-3.8e-07,0.0,0 STARLINK-3895,1 52583U 22051AZ  23246.38440792 -.00000038  00000-0  15678-4 0  9990,2 52583  53.2161 281.5537 0001376  91.1192 268.9958 15.08841192 72953,6917.877,95.437,540.694,538.79,0.0
52583.0,STARLINK-3895,PAYLOAD,2023-09-04 02:42:48,15.08832887,0.0001435,53.2159,278.2827,91.1806,268.9351,-6.9954e-05,-1.401e-05,0.0,0 STARLINK-3895,1 52583U 22051AZ  23247.11305700 -.00001401  00000-0 -69954-4 0  9993,2 52583  53.2159 278.2827 0001435  91.1806 268.9351 15.08832887 73132,6917.902,95.438,540.76,538.774,0.0
52583.0,STARLINK-3895,PAYLOAD,2023-09-04 05:53:34,15.08832879,0.0001439,53.2161,277.688,91.269,268.8467,-6.9368e-05,-1.392e-05,0.0,0 STARLINK-3895,1 52583U 22051AZ  23247.24553735 -.00001392  00000-0 -69368-4 0  9998,2 52583  53.2161 277.6880 0001439  91.2690 268.8467 15.08832879 73085,6917.902,95.438,540.763,538.772,0.0
52583.0,STARLINK-3895,PAYLOAD,2023-09-05 12:05:53,15.08837184,0.0001492,53.2166,272.0378,90.9025,269.2138,5.4824e-05,5.85e-06,0.0,0 STARLINK-3895,1 52583U 22051AZ  23248.50409529  .00000585  00000-0  54824-4 0  9991,2 52583  53.2166 272.0378 0001492  90.9025 269.2138 15.08837184 73341,6917.889,95.438,540.786,538.722,0.0
52583.0,STARLINK-3895,PAYLOAD,2023-09-06 10:21:17,15.0883808,0.0001442,53.2162,267.874,97.0071,263.1085,9.4834e-05,1.222e-05,0.0,0 STARLINK-3895,1 52583U 22051AZ  23249.43145624  .00001222  00000-0  94834-4 0  9991,2 52583  53.2162 267.8740 0001442  97.0071 263.1085 15.08838080 73414,6917.886,95.438,540.749,538.754,0.0
52583.0,STARLINK-3895,PAYLOAD,2023-09-06 23:04:23,15.08838539,0.0001469,53.2157,265.495,98.931,261.1849,4.3275e-05,4.01e-06,0.0,0 STARLINK-3895,1 52583U 22051AZ  23249.96137843  .00000401  00000-0  43275-4 0  9994,2 52583  53.2157 265.4950 0001469  98.9310 261.1849 15.08838539 73561,6917.885,95.438,540.766,538.734,0.0
52583.0,STARLINK-3895,PAYLOAD,2023-09-07 10:12:04,15.08840783,0.0001403,53.2161,263.4132,94.8611,265.2542,3.1153e-05,2.08e-06,0.0,0 STARLINK-3895,1 52583U 22051AZ  23250.42505779  .00000208  00000-0  31153-4 0  9991,2 52583  53.2161 263.4132 0001403  94.8611 265.2542 15.08840783 73562,6917.878,95.438,540.714,538.772,0.0
52583.0,STARLINK-3895,PAYLOAD,2023-09-07 18:09:00,15.08837745,0.0001409,53.2162,261.9257,86.9112,273.2042,2.5844e-06,-2.47e-06,0.0,0 STARLINK-3895,1 52583U 22051AZ  23250.75626088 -.00000247  00000-0  25844-5 0  9999,2 52583  53.2162 261.9257 0001409  86.9112 273.2042 15.08837745 73612,6917.887,95.438,540.727,538.778,0.0
52583.0,STARLINK-3895,PAYLOAD,2023-09-08 08:27:28,15.08841472,0.0001369,53.2162,259.2487,88.5387,271.5761,1.6351e-05,-2.8e-07,0.0,0 STARLINK-3895,1 52583U 22051AZ  23251.35241848 -.00000028  00000-0  16351-4 0  9992,2 52583  53.2162 259.2487 0001369  88.5387 271.5761 15.08841472 73772,6917.876,95.437,540.688,538.794,0.0
52583.0,STARLINK-3895,PAYLOAD,2023-09-08 17:59:47,15.08840754,0.0001393,53.2163,257.4662,84.7252,275.3899,4.5693e-05,4.39e-06,0.0,0 STARLINK-3895,1 52583U 22051AZ  23251.74985805  .00000439  00000-0  45693-4 0  9999,2 52583  53.2163 257.4662 0001393  84.7252 275.3899 15.08840754 73769,6917.878,95.438,540.707,538.779,0.0
52583.0,STARLINK-3895,PAYLOAD,2023-09-09 09:53:38,15.08845666,0.0001393,53.2162,254.4923,86.8495,273.2656,8.6394e-05,1.087e-05,0.0,0 STARLINK-3895,1 52583U 22051AZ  23252.41225273  .00001087  00000-0  86394-4 0  9993,2 52583  53.2162 254.4923 0001393  86.8495 273.2656 15.08845666 73931,6917.863,95.437,540.692,538.764,0.0
52583.0,STARLINK-3895,PAYLOAD,2023-09-09 22:36:44,15.08835914,0.0001415,53.2162,252.1135,88.039,272.0764,1.3274e-05,-7.7e-07,0.0,0 STARLINK-3895,1 52583U 22051AZ  23252.94218098 -.00000077  00000-0  13274-4 0  9994,2 52583  53.2162 252.1135 0001415  88.0390 272.0764 15.08835914 74016,6917.893,95.438,540.737,538.779,0.0
52583.0,STARLINK-3895,PAYLOAD,2023-09-10 09:44:25,15.08841773,0.000143,53.2163,250.0308,93.5483,266.5673,5.4731e-05,5.83e-06,0.0,0 STARLINK-3895,1 52583U 22051AZ  23253.40585553  .00000583  00000-0  54731-4 0  9993,2 52583  53.2163 250.0308 0001430  93.5483 266.5673 15.08841773 74081,6917.875,95.437,540.729,538.751,0.0
52583.0,STARLINK-3895,PAYLOAD,2023-09-11 03:13:41,15.08826154,0.0001445,53.2157,246.76,94.6728,265.4429,-0.0001157,-2.128e-05,0.0,0 STARLINK-3895,1 52583U 22051AZ  23254.13451286 -.00002128  00000-0 -11570-3 0  9991,2 52583  53.2157 246.7600 0001445  94.6728 265.4429 15.08826154 74196,6917.923,95.438,540.787,538.788,0.0
52583.0,STARLINK-3895,PAYLOAD,2023-09-11 06:24:28,15.08824945,0.0001425,53.2156,246.1662,93.967,266.1485,-0.00013984,-2.512e-05,0.0,0 STARLINK-3895,1 52583U 22051AZ  23254.26699543 -.00002512  00000-0 -13984-3 0  9993,2 52583  53.2156 246.1662 0001425  93.9670 266.1485 15.08824945 74144,6917.926,95.439,540.777,538.806,0.0
52583.0,STARLINK-3895,PAYLOAD,2023-09-12 03:04:28,15.08835195,0.0001369,53.2161,242.3014,91.7275,268.3874,3.5189e-05,2.72e-06,0.0,0 STARLINK-3895,1 52583U 22051AZ  23255.12810877  .00000272  00000-0  35189-4 0  9995,2 52583  53.2161 242.3014 0001369  91.7275 268.3874 15.08835195 74340,6917.895,95.438,540.707,538.813,0.0
52583.0,STARLINK-3895,PAYLOAD,2023-09-12 06:15:14,15.08837677,0.0001381,53.2159,241.7058,90.8836,269.2314,3.8657e-05,3.27e-06,0.0,0 STARLINK-3895,1 52583U 22051AZ  23255.26058758  .00000327  00000-0  38657-4 0  9996,2 52583  53.2159 241.7058 0001381  90.8836 269.2314 15.08837677 74295,6917.887,95.438,540.708,538.797,0.0
52583.0,STARLINK-3895,PAYLOAD,2023-09-12 15:47:33,15.08840876,0.0001377,53.2159,239.9215,90.3686,269.7464,6.0568e-05,6.76e-06,0.0,0 STARLINK-3895,1 52583U 22051AZ  23255.65802570  .00000676  00000-0  60568-4 0  9991,2 52583  53.2159 239.9215 0001377  90.3686 269.7464 15.08840876 74355,6917.878,95.437,540.695,538.79,0.0
52583.0,STARLINK-3895,PAYLOAD,2023-09-13 02:55:15,15.08839578,0.0001359,53.2165,237.8389,87.6838,272.4309,0.00023136,3.396e-05,0.0,0 STARLINK-3895,1 52583U 22051AZ  23256.12170142  .00003396  00000-0  23136-3 0  9998,2 52583  53.2165 237.8389 0001359  87.6838 272.4309 15.08839578 74490,6917.882,95.438,540.687,538.807,0.0
52583.0,STARLINK-3895,PAYLOAD,2023-09-13 06:06:00,15.08846471,0.0001369,53.2164,237.245,89.404,270.7109,0.00028534,4.257e-05,0.0,0 STARLINK-3895,1 52583U 22051AZ  23256.25417641  .00004257  00000-0  28534-3 0  9994,2 52583  53.2164 237.2450 0001369  89.4040 270.7109 15.08846471 74510,6917.861,95.437,540.673,538.779,0.0
52583.0,STARLINK-3895,PAYLOAD,2023-09-13 15:38:20,15.08841972,0.0001408,53.2176,235.4618,85.9249,274.1904,0.00016594,2.354e-05,0.0,0 STARLINK-3895,1 52583U 22051AZ  23256.65162211  .00002354  00000-0  16594-3 0  9997,2 52583  53.2176 235.4618 0001408  85.9249 274.1904 15.08841972 74573,6917.874,95.437,540.713,538.765,0.0
52583.0,STARLINK-3895,PAYLOAD,2023-09-14 02:46:03,15.08829749,0.0001358,53.2165,233.3795,87.682,272.4327,-4.4976e-05,-1.003e-05,0.0,0 STARLINK-3895,1 52583U 22051AZ  23257.11531895 -.00001003  00000-0 -44976-4 0  9995,2 52583  53.2165 233.3795 0001358  87.6820 272.4327 15.08829749 74648,6917.912,95.438,540.716,538.837,0.0
52583.0,STARLINK-3895,PAYLOAD,2023-09-14 07:32:12,15.08833916,0.0001397,53.2163,232.4879,85.6143,274.5008,2.5156e-06,-2.48e-06,0.0,0 STARLINK-3895,1 52583U 22051AZ  23257.31403732 -.00000248  00000-0  25156-5 0  9994,2 52583  53.2163 232.4879 0001397  85.6143 274.5008 15.08833916 74604,6917.899,95.438,540.73,538.798,0.0
52583.0,STARLINK-3895,PAYLOAD,2023-09-15 04:12:12,15.08849306,0.0001442,53.2158,228.622,88.5786,271.5372,3.3901e-05,2.52e-06,0.0,0 STARLINK-3895,1 52583U 22051AZ  23258.17514331  .00000252  00000-0  33901-4 0  9997,2 52583  53.2158 228.6220 0001442  88.5786 271.5372 15.08849306 74804,6917.852,95.437,540.714,538.719,0.0
52583.0,STARLINK-3895,PAYLOAD,2023-09-15 05:47:35,15.08852276,0.0001449,53.2159,228.3245,87.2445,272.8713,9.2462e-05,1.184e-05,0.0,0 STARLINK-3895,1 52583U 22051AZ  23258.24138200  .00001184  00000-0  92462-4 0  9994,2 52583  53.2159 228.3245 0001449  87.2445 272.8713 15.08852276 74740,6917.843,95.437,540.71,538.705,0.0
52583.0,STARLINK-3895,PAYLOAD,2023-09-15 15:19:54,15.08844375,0.0001465,53.2164,226.5398,83.1846,276.9313,9.1201e-06,-1.43e-06,0.0,0 STARLINK-3895,1 52583U 22051AZ  23258.63882624 -.00000143  00000-0  91201-5 0  9999,2 52583  53.2164 226.5398 0001465  83.1846 276.9313 15.08844375 74879,6917.867,95.437,540.745,538.719,0.0
52583.0,STARLINK-3895,PAYLOAD,2023-09-15 23:16:50,15.08835685,0.0001496,53.2156,225.0536,81.5483,278.5679,0.00025424,3.76e-05,0.0,0 STARLINK-3895,1 52583U 22051AZ  23258.97003367  .00003760  00000-0  25424-3 0  9994,2 52583  53.2156 225.0536 0001496  81.5483 278.5679 15.08835685 74924,6917.894,95.438,540.793,538.724,0.0
